<?xml version="1.0" encoding="UTF-8"?>
<ndm xmlns:xsi="http://www.w3.org/2001/XMLSchema-instance" xsi:noNamespaceSchemaLocation="https://sanaregistry.org/r/ndmxml_unqualified/ndmxml-2.0.0-master-2.0.xsd">
<omm id="CCSDS_OMM_VERS" version="2.0">
<header><CREATION_DATE/><ORIGINATOR/></header><body><segment><metadata><OBJECT_NAME>IRIDIUM 57</OBJECT_NAME><OBJECT_ID>1998-019B</OBJECT_ID><CENTER_NAME>EARTH</CENTER_NAME><REF_FRAME>TEME</REF_FRAME><TIME_SYSTEM>UTC</TIME_SYSTEM><MEAN_ELEMENT_THEORY>SGP4</MEAN_ELEMENT_THEORY></metadata><data><meanElements><EPOCH>2024-06-21T01:12:48.885120</EPOCH><MEAN_MOTION>14.35253609</MEAN_MOTION><ECCENTRICITY>.0002136</ECCENTRICITY><INCLINATION>86.3953</INCLINATION><RA_OF_ASC_NODE>296.5024</RA_OF_ASC_NODE><ARG_OF_PERICENTER>94.0350</ARG_OF_PERICENTER><MEAN_ANOMALY>266.1091</MEAN_ANOMALY></meanElements><tleParameters><EPHEMERIS_TYPE>0</EPHEMERIS_TYPE><CLASSIFICATION_TYPE>U</CLASSIFICATION_TYPE><NORAD_CAT_ID>25273</NORAD_CAT_ID><ELEMENT_SET_NO>999</ELEMENT_SET_NO><REV_AT_EPOCH>37318</REV_AT_EPOCH><BSTAR>.14559E-3</BSTAR><MEAN_MOTION_DOT>.436E-5</MEAN_MOTION_DOT><MEAN_MOTION_DDOT>0</MEAN_MOTION_DDOT></tleParameters></data></segment></body></omm>
<omm id="CCSDS_OMM_VERS" version="2.0">
<header><CREATION_DATE/><ORIGINATOR/></header><body><segment><metadata><OBJECT_NAME>IRIDIUM 63</OBJECT_NAME><OBJECT_ID>1998-021B</OBJECT_ID><CENTER_NAME>EARTH</CENTER_NAME><REF_FRAME>TEME</REF_FRAME><TIME_SYSTEM>UTC</TIME_SYSTEM><MEAN_ELEMENT_THEORY>SGP4</MEAN_ELEMENT_THEORY></metadata><data><meanElements><EPOCH>2024-06-20T15:42:36.372096</EPOCH><MEAN_MOTION>14.35804630</MEAN_MOTION><ECCENTRICITY>.0002305</ECCENTRICITY><INCLINATION>86.3994</INCLINATION><RA_OF_ASC_NODE>233.5653</RA_OF_ASC_NODE><ARG_OF_PERICENTER>89.5180</ARG_OF_PERICENTER><MEAN_ANOMALY>270.6280</MEAN_ANOMALY></meanElements><tleParameters><EPHEMERIS_TYPE>0</EPHEMERIS_TYPE><CLASSIFICATION_TYPE>U</CLASSIFICATION_TYPE><NORAD_CAT_ID>25286</NORAD_CAT_ID><ELEMENT_SET_NO>999</ELEMENT_SET_NO><REV_AT_EPOCH>37195</REV_AT_EPOCH><BSTAR>.13931E-3</BSTAR><MEAN_MOTION_DOT>.423E-5</MEAN_MOTION_DOT><MEAN_MOTION_DDOT>0</MEAN_MOTION_DDOT></tleParameters></data></segment></body></omm>
<omm id="CCSDS_OMM_VERS" version="2.0">
<header><CREATION_DATE/><ORIGINATOR/></header><body><segment><metadata><OBJECT_NAME>IRIDIUM 69</OBJECT_NAME><OBJECT_ID>1998-026A</OBJECT_ID><CENTER_NAME>EARTH</CENTER_NAME><REF_FRAME>TEME</REF_FRAME><TIME_SYSTEM>UTC</TIME_SYSTEM><MEAN_ELEMENT_THEORY>SGP4</MEAN_ELEMENT_THEORY></metadata><data><meanElements><EPOCH>2024-06-20T17:06:35.928576</EPOCH><MEAN_MOTION>14.40044453</MEAN_MOTION><ECCENTRICITY>.0004322</ECCENTRICITY><INCLINATION>86.3981</INCLINATION><RA_OF_ASC_NODE>247.9169</RA_OF_ASC_NODE><ARG_OF_PERICENTER>115.3988</ARG_OF_PERICENTER><MEAN_ANOMALY>244.7659</MEAN_ANOMALY></meanElements><tleParameters><EPHEMERIS_TYPE>0</EPHEMERIS_TYPE><CLASSIFICATION_TYPE>U</CLASSIFICATION_TYPE><NORAD_CAT_ID>25319</NORAD_CAT_ID><ELEMENT_SET_NO>999</ELEMENT_SET_NO><REV_AT_EPOCH>37102</REV_AT_EPOCH><BSTAR>.16632E-3</BSTAR><MEAN_MOTION_DOT>.544E-5</MEAN_MOTION_DOT><MEAN_MOTION_DDOT>0</MEAN_MOTION_DDOT></tleParameters></data></segment></body></omm>
<omm id="CCSDS_OMM_VERS" version="2.0">
<header><CREATION_DATE/><ORIGINATOR/></header><body><segment><metadata><OBJECT_NAME>IRIDIUM 71</OBJECT_NAME><OBJECT_ID>1998-026B</OBJECT_ID><CENTER_NAME>EARTH</CENTER_NAME><REF_FRAME>TEME</REF_FRAME><TIME_SYSTEM>UTC</TIME_SYSTEM><MEAN_ELEMENT_THEORY>SGP4</MEAN_ELEMENT_THEORY></metadata><data><meanElements><EPOCH>2024-06-20T17:05:31.758432</EPOCH><MEAN_MOTION>14.40356498</MEAN_MOTION><ECCENTRICITY>.0002703</ECCENTRICITY><INCLINATION>86.3984</INCLINATION><RA_OF_ASC_NODE>242.6773</RA_OF_ASC_NODE><ARG_OF_PERICENTER>144.5641</ARG_OF_PERICENTER><MEAN_ANOMALY>215.5738</MEAN_ANOMALY></meanElements><tleParameters><EPHEMERIS_TYPE>0</EPHEMERIS_TYPE><CLASSIFICATION_TYPE>U</CLASSIFICATION_TYPE><NORAD_CAT_ID>25320</NORAD_CAT_ID><ELEMENT_SET_NO>999</ELEMENT_SET_NO><REV_AT_EPOCH>37154</REV_AT_EPOCH><BSTAR>.14836E-3</BSTAR><MEAN_MOTION_DOT>.49E-5</MEAN_MOTION_DOT><MEAN_MOTION_DDOT>0</MEAN_MOTION_DDOT></tleParameters></data></segment></body></omm>
<omm id="CCSDS_OMM_VERS" version="2.0">
<header><CREATION_DATE/><ORIGINATOR/></header><body><segment><metadata><OBJECT_NAME>IRIDIUM 73</OBJECT_NAME><OBJECT_ID>1998-032C</OBJECT_ID><CENTER_NAME>EARTH</CENTER_NAME><REF_FRAME>TEME</REF_FRAME><TIME_SYSTEM>UTC</TIME_SYSTEM><MEAN_ELEMENT_THEORY>SGP4</MEAN_ELEMENT_THEORY></metadata><data><meanElements><EPOCH>2024-06-20T22:58:30.036576</EPOCH><MEAN_MOTION>14.50584674</MEAN_MOTION><ECCENTRICITY>.0002841</ECCENTRICITY><INCLINATION>86.4441</INCLINATION><RA_OF_ASC_NODE>200.0165</RA_OF_ASC_NODE><ARG_OF_PERICENTER>100.2066</ARG_OF_PERICENTER><MEAN_ANOMALY>259.9460</MEAN_ANOMALY></meanElements><tleParameters><EPHEMERIS_TYPE>0</EPHEMERIS_TYPE><CLASSIFICATION_TYPE>U</CLASSIFICATION_TYPE><NORAD_CAT_ID>25344</NORAD_CAT_ID><ELEMENT_SET_NO>999</ELEMENT_SET_NO><REV_AT_EPOCH>37847</REV_AT_EPOCH><BSTAR>.14963E-3</BSTAR><MEAN_MOTION_DOT>.607E-5</MEAN_MOTION_DOT><MEAN_MOTION_DDOT>0</MEAN_MOTION_DDOT></tleParameters></data></segment></body></omm>
<omm id="CCSDS_OMM_VERS" version="2.0">
<header><CREATION_DATE/><ORIGINATOR/></header><body><segment><metadata><OBJECT_NAME>IRIDIUM 82</OBJECT_NAME><OBJECT_ID>1998-051A</OBJECT_ID><CENTER_NAME>EARTH</CENTER_NAME><REF_FRAME>TEME</REF_FRAME><TIME_SYSTEM>UTC</TIME_SYSTEM><MEAN_ELEMENT_THEORY>SGP4</MEAN_ELEMENT_THEORY></metadata><data><meanElements><EPOCH>2024-06-20T18:52:07.620384</EPOCH><MEAN_MOTION>15.10361889</MEAN_MOTION><ECCENTRICITY>.0126715</ECCENTRICITY><INCLINATION>86.3758</INCLINATION><RA_OF_ASC_NODE>284.0625</RA_OF_ASC_NODE><ARG_OF_PERICENTER>206.6536</ARG_OF_PERICENTER><MEAN_ANOMALY>152.8154</MEAN_ANOMALY></meanElements><tleParameters><EPHEMERIS_TYPE>0</EPHEMERIS_TYPE><CLASSIFICATION_TYPE>U</CLASSIFICATION_TYPE><NORAD_CAT_ID>25467</NORAD_CAT_ID><ELEMENT_SET_NO>999</ELEMENT_SET_NO><REV_AT_EPOCH>36903</REV_AT_EPOCH><BSTAR>.74755E-3</BSTAR><MEAN_MOTION_DOT>.14911E-3</MEAN_MOTION_DOT><MEAN_MOTION_DDOT>0</MEAN_MOTION_DDOT></tleParameters></data></segment></body></omm>

</ndm>
