IRIDIUM 57              
1 25273U 98019B   24173.05056580  .00000436  00000+0  14559-3 0  9991
2 25273  86.3953 296.5024 0002136  94.0350 266.1091 14.35253609373181
IRIDIUM 63              
1 25286U 98021B   24172.65458764  .00000423  00000+0  13931-3 0  9992
2 25286  86.3994 233.5653 0002305  89.5180 270.6280 14.35804630371956
IRIDIUM 69              
1 25319U 98026A   24172.71291584  .00000544  00000+0  16632-3 0  9991
2 25319  86.3981 247.9169 0004322 115.3988 244.7659 14.40044453371020
IRIDIUM 71              
1 25320U 98026B   24172.71217313  .00000490  00000+0  14836-3 0  9995
2 25320  86.3984 242.6773 0002703 144.5641 215.5738 14.40356498371545
IRIDIUM 73              
1 25344U 98032C   24172.95729209  .00000607  00000+0  14963-3 0  9997
2 25344  86.4441 200.0165 0002841 100.2066 259.9460 14.50584674378479
IRIDIUM 82              
1 25467U 98051A   24172.78619931  .00014911  00000+0  74755-3 0  9993
2 25467  86.3758 284.0625 0126715 206.6536 152.8154 15.10361889369039
